ONEWEB-0092             
1 45437U 20020P   25335.71523023 -.00000213  00000+0 -63684-3 0  9995
2 45437  87.8868  60.3851 0001456 108.4572 251.6714 13.11413702276909
ONEWEB-0085             
1 45438U 20020Q   25335.67539382  .00000128  00000+0  32673-3 0  9993
2 45438  87.8865  60.4024 0001623 104.7908 255.3400 13.11420061276783
ONEWEB-0096             
1 45439U 20020R   25335.67709258  .00000230  00000+0  61379-3 0  9994
2 45439  87.8875  60.3813 0001807 106.5372 253.5954 13.11419482276777
ONEWEB-0037             
1 45440U 20020S   25335.73387727 -.00000525  00000+0 -15170-2 0  9992
2 45440  87.8880  60.3393 0001559 105.5282 254.6018 13.11417817276819
ONEWEB-0042             
1 45441U 20020T   25335.66677046 -.00000276  00000+0 -81395-3 0  9997
2 45441  87.8873  60.3831 0001638 108.6699 251.4606 13.11419612276771
ONEWEB-0098             
1 45442U 20020U   25335.73895659 -.00000417  00000+0 -12126-2 0  9990
2 45442  87.8872  60.3807 0001713 101.0978 259.0343 13.11416094276767
ONEWEB-0055             
1 45443U 20020V   25335.79830706 -.00000553  00000+0 -15961-2 0  9990
2 45443  87.8868  60.3695 0001699 102.5613 257.5705 13.11415458276749
ONEWEB-0093             
1 45444U 20020W   25335.77388019  .00000518  00000+0  14264-2 0  9998
2 45444  87.8871  60.3612 0001877 116.3361 243.7960 13.11415741276806
ONEWEB-0029             
1 45445U 20020X   25335.71353603 -.00000155  00000+0 -47429-3 0  9993
2 45445  87.8870  60.3855 0001796 106.2297 253.9028 13.11413587276771
ONEWEB-0068             
1 45446U 20020Y   25335.77361009  .00000492  00000+0  13515-2 0  9999
2 45446  87.8872  60.3628 0001831 106.9864 253.1465 13.11415306276722
ONEWEB-0046             
1 45447U 20020Z   25335.76525936  .00000529  00000+0  14578-2 0  9991
2 45447  87.8869  60.3723 0001624 112.8123 247.3177 13.11418005276734
ONEWEB-0063             
1 45448U 20020AA  25335.79406389 -.00000355  00000+0 -10367-2 0  9996
2 45448  87.8869  60.3645 0001545 111.3133 248.8160 13.11412656276829
ONEWEB-0019             
1 45449U 20020AB  25335.76701394  .00000444  00000+0  12124-2 0  9998
2 45449  87.8857  60.3803 0002057  99.0745 261.0616 13.11599781276663
ONEWEB-0094             
1 45450U 20020AC  25335.61702832 -.00000031  00000+0 -11247-3 0  9992
2 45450  87.9132  45.1206 0001864  99.7761 260.3581 13.17650965280295
ONEWEB-0087             
1 45451U 20020AD  25335.80410267 -.00000554  00000+0 -15999-2 0  9999
2 45451  87.8880  60.3196 0001975 107.6136 252.5208 13.11416270276714
ONEWEB-0082             
1 45452U 20020AE  25335.80084925 -.00000492  00000+0 -14242-2 0  9999
2 45452  87.8881  60.3456 0001892 106.2894 253.8442 13.11415928276802
ONEWEB-0050             
1 45453U 20020AF  25335.82372941  .00003888  00000+0  40711-3 0  9991
2 45453  88.9228 260.1325 0003039  19.0228 341.1113 14.89417988310991
