[{"OBJECT_NAME":"ONEWEB-0092","OBJECT_ID":"2020-020P","EPOCH":"2025-12-01T17:09:55.891872","MEAN_MOTION":13.11413702,"ECCENTRICITY":0.0001456,"INCLINATION":87.8868,"RA_OF_ASC_NODE":60.3851,"ARG_OF_PERICENTER":108.4572,"MEAN_ANOMALY":251.6714,"EPHEMERIS_TYPE":0,"CLASSIFICATION_TYPE":"U","NORAD_CAT_ID":45437,"ELEMENT_SET_NO":999,"REV_AT_EPOCH":27690,"BSTAR":-0.00063684,"MEAN_MOTION_DOT":-2.13e-6,"MEAN_MOTION_DDOT":0},{"OBJECT_NAME":"ONEWEB-0085","OBJECT_ID":"2020-020Q","EPOCH":"2025-12-01T16:12:34.026048","MEAN_MOTION":13.11420061,"ECCENTRICITY":0.0001623,"INCLINATION":87.8865,"RA_OF_ASC_NODE":60.4024,"ARG_OF_PERICENTER":104.7908,"MEAN_ANOMALY":255.34,"EPHEMERIS_TYPE":0,"CLASSIFICATION_TYPE":"U","NORAD_CAT_ID":45438,"ELEMENT_SET_NO":999,"REV_AT_EPOCH":27678,"BSTAR":0.00032673,"MEAN_MOTION_DOT":1.28e-6,"MEAN_MOTION_DDOT":0},{"OBJECT_NAME":"ONEWEB-0096","OBJECT_ID":"2020-020R","EPOCH":"2025-12-01T16:15:00.798912","MEAN_MOTION":13.11419482,"ECCENTRICITY":0.0001807,"INCLINATION":87.8875,"RA_OF_ASC_NODE":60.3813,"ARG_OF_PERICENTER":106.5372,"MEAN_ANOMALY":253.5954,"EPHEMERIS_TYPE":0,"CLASSIFICATION_TYPE":"U","NORAD_CAT_ID":45439,"ELEMENT_SET_NO":999,"REV_AT_EPOCH":27677,"BSTAR":0.00061379,"MEAN_MOTION_DOT":2.3e-6,"MEAN_MOTION_DDOT":0},{"OBJECT_NAME":"ONEWEB-0037","OBJECT_ID":"2020-020S","EPOCH":"2025-12-01T17:36:46.996128","MEAN_MOTION":13.11417817,"ECCENTRICITY":0.0001559,"INCLINATION":87.888,"RA_OF_ASC_NODE":60.3393,"ARG_OF_PERICENTER":105.5282,"MEAN_ANOMALY":254.6018,"EPHEMERIS_TYPE":0,"CLASSIFICATION_TYPE":"U","NORAD_CAT_ID":45440,"ELEMENT_SET_NO":999,"REV_AT_EPOCH":27681,"BSTAR":-0.001517,"MEAN_MOTION_DOT":-5.25e-6,"MEAN_MOTION_DDOT":0},{"OBJECT_NAME":"ONEWEB-0042","OBJECT_ID":"2020-020T","EPOCH":"2025-12-01T16:00:08.967744","MEAN_MOTION":13.11419612,"ECCENTRICITY":0.0001638,"INCLINATION":87.8873,"RA_OF_ASC_NODE":60.3831,"ARG_OF_PERICENTER":108.6699,"MEAN_ANOMALY":251.4606,"EPHEMERIS_TYPE":0,"CLASSIFICATION_TYPE":"U","NORAD_CAT_ID":45441,"ELEMENT_SET_NO":999,"REV_AT_EPOCH":27677,"BSTAR":-0.00081395,"MEAN_MOTION_DOT":-2.76e-6,"MEAN_MOTION_DDOT":0},{"OBJECT_NAME":"ONEWEB-0098","OBJECT_ID":"2020-020U","EPOCH":"2025-12-01T17:44:05.849376","MEAN_MOTION":13.11416094,"ECCENTRICITY":0.0001713,"INCLINATION":87.8872,"RA_OF_ASC_NODE":60.3807,"ARG_OF_PERICENTER":101.0978,"MEAN_ANOMALY":259.0343,"EPHEMERIS_TYPE":0,"CLASSIFICATION_TYPE":"U","NORAD_CAT_ID":45442,"ELEMENT_SET_NO":999,"REV_AT_EPOCH":27676,"BSTAR":-0.0012126,"MEAN_MOTION_DOT":-4.17e-6,"MEAN_MOTION_DDOT":0},{"OBJECT_NAME":"ONEWEB-0055","OBJECT_ID":"2020-020V","EPOCH":"2025-12-01T19:09:33.729984","MEAN_MOTION":13.11415458,"ECCENTRICITY":0.0001699,"INCLINATION":87.8868,"RA_OF_ASC_NODE":60.3695,"ARG_OF_PERICENTER":102.5613,"MEAN_ANOMALY":257.5705,"EPHEMERIS_TYPE":0,"CLASSIFICATION_TYPE":"U","NORAD_CAT_ID":45443,"ELEMENT_SET_NO":999,"REV_AT_EPOCH":27674,"BSTAR":-0.0015961,"MEAN_MOTION_DOT":-5.53e-6,"MEAN_MOTION_DDOT":0},{"OBJECT_NAME":"ONEWEB-0093","OBJECT_ID":"2020-020W","EPOCH":"2025-12-01T18:34:23.248416","MEAN_MOTION":13.11415741,"ECCENTRICITY":0.0001877,"INCLINATION":87.8871,"RA_OF_ASC_NODE":60.3612,"ARG_OF_PERICENTER":116.3361,"MEAN_ANOMALY":243.796,"EPHEMERIS_TYPE":0,"CLASSIFICATION_TYPE":"U","NORAD_CAT_ID":45444,"ELEMENT_SET_NO":999,"REV_AT_EPOCH":27680,"BSTAR":0.0014264,"MEAN_MOTION_DOT":5.18e-6,"MEAN_MOTION_DDOT":0},{"OBJECT_NAME":"ONEWEB-0029","OBJECT_ID":"2020-020X","EPOCH":"2025-12-01T17:07:29.512992","MEAN_MOTION":13.11413587,"ECCENTRICITY":0.0001796,"INCLINATION":87.887,"RA_OF_ASC_NODE":60.3855,"ARG_OF_PERICENTER":106.2297,"MEAN_ANOMALY":253.9028,"EPHEMERIS_TYPE":0,"CLASSIFICATION_TYPE":"U","NORAD_CAT_ID":45445,"ELEMENT_SET_NO":999,"REV_AT_EPOCH":27677,"BSTAR":-0.00047429,"MEAN_MOTION_DOT":-1.55e-6,"MEAN_MOTION_DDOT":0},{"OBJECT_NAME":"ONEWEB-0068","OBJECT_ID":"2020-020Y","EPOCH":"2025-12-01T18:33:59.911776","MEAN_MOTION":13.11415306,"ECCENTRICITY":0.0001831,"INCLINATION":87.8872,"RA_OF_ASC_NODE":60.3628,"ARG_OF_PERICENTER":106.9864,"MEAN_ANOMALY":253.1465,"EPHEMERIS_TYPE":0,"CLASSIFICATION_TYPE":"U","NORAD_CAT_ID":45446,"ELEMENT_SET_NO":999,"REV_AT_EPOCH":27672,"BSTAR":0.0013515,"MEAN_MOTION_DOT":4.92e-6,"MEAN_MOTION_DDOT":0},{"OBJECT_NAME":"ONEWEB-0046","OBJECT_ID":"2020-020Z","EPOCH":"2025-12-01T18:21:58.408704","MEAN_MOTION":13.11418005,"ECCENTRICITY":0.0001624,"INCLINATION":87.8869,"RA_OF_ASC_NODE":60.3723,"ARG_OF_PERICENTER":112.8123,"MEAN_ANOMALY":247.3177,"EPHEMERIS_TYPE":0,"CLASSIFICATION_TYPE":"U","NORAD_CAT_ID":45447,"ELEMENT_SET_NO":999,"REV_AT_EPOCH":27673,"BSTAR":0.0014578,"MEAN_MOTION_DOT":5.29e-6,"MEAN_MOTION_DDOT":0},{"OBJECT_NAME":"ONEWEB-0063","OBJECT_ID":"2020-020AA","EPOCH":"2025-12-01T19:03:27.120096","MEAN_MOTION":13.11412656,"ECCENTRICITY":0.0001545,"INCLINATION":87.8869,"RA_OF_ASC_NODE":60.3645,"ARG_OF_PERICENTER":111.3133,"MEAN_ANOMALY":248.816,"EPHEMERIS_TYPE":0,"CLASSIFICATION_TYPE":"U","NORAD_CAT_ID":45448,"ELEMENT_SET_NO":999,"REV_AT_EPOCH":27682,"BSTAR":-0.0010367,"MEAN_MOTION_DOT":-3.55e-6,"MEAN_MOTION_DDOT":0},{"OBJECT_NAME":"ONEWEB-0019","OBJECT_ID":"2020-020AB","EPOCH":"2025-12-01T18:24:30.004416","MEAN_MOTION":13.11599781,"ECCENTRICITY":0.0002057,"INCLINATION":87.8857,"RA_OF_ASC_NODE":60.3803,"ARG_OF_PERICENTER":99.0745,"MEAN_ANOMALY":261.0616,"EPHEMERIS_TYPE":0,"CLASSIFICATION_TYPE":"U","NORAD_CAT_ID":45449,"ELEMENT_SET_NO":999,"REV_AT_EPOCH":27666,"BSTAR":0.0012124,"MEAN_MOTION_DOT":4.44e-6,"MEAN_MOTION_DDOT":0},{"OBJECT_NAME":"ONEWEB-0094","OBJECT_ID":"2020-020AC","EPOCH":"2025-12-01T14:48:31.246848","MEAN_MOTION":13.17650965,"ECCENTRICITY":0.0001864,"INCLINATION":87.9132,"RA_OF_ASC_NODE":45.1206,"ARG_OF_PERICENTER":99.7761,"MEAN_ANOMALY":260.3581,"EPHEMERIS_TYPE":0,"CLASSIFICATION_TYPE":"U","NORAD_CAT_ID":45450,"ELEMENT_SET_NO":999,"REV_AT_EPOCH":28029,"BSTAR":-0.00011247,"MEAN_MOTION_DOT":-3.1e-7,"MEAN_MOTION_DDOT":0},{"OBJECT_NAME":"ONEWEB-0087","OBJECT_ID":"2020-020AD","EPOCH":"2025-12-01T19:17:54.470688","MEAN_MOTION":13.1141627,"ECCENTRICITY":0.0001975,"INCLINATION":87.888,"RA_OF_ASC_NODE":60.3196,"ARG_OF_PERICENTER":107.6136,"MEAN_ANOMALY":252.5208,"EPHEMERIS_TYPE":0,"CLASSIFICATION_TYPE":"U","NORAD_CAT_ID":45451,"ELEMENT_SET_NO":999,"REV_AT_EPOCH":27671,"BSTAR":-0.0015999,"MEAN_MOTION_DOT":-5.54e-6,"MEAN_MOTION_DDOT":0},{"OBJECT_NAME":"ONEWEB-0082","OBJECT_ID":"2020-020AE","EPOCH":"2025-12-01T19:13:13.375200","MEAN_MOTION":13.11415928,"ECCENTRICITY":0.0001892,"INCLINATION":87.8881,"RA_OF_ASC_NODE":60.3456,"ARG_OF_PERICENTER":106.2894,"MEAN_ANOMALY":253.8442,"EPHEMERIS_TYPE":0,"CLASSIFICATION_TYPE":"U","NORAD_CAT_ID":45452,"ELEMENT_SET_NO":999,"REV_AT_EPOCH":27680,"BSTAR":-0.0014242,"MEAN_MOTION_DOT":-4.92e-6,"MEAN_MOTION_DDOT":0},{"OBJECT_NAME":"ONEWEB-0050","OBJECT_ID":"2020-020AF","EPOCH":"2025-12-01T19:46:10.221024","MEAN_MOTION":14.89417988,"ECCENTRICITY":0.0003039,"INCLINATION":88.9228,"RA_OF_ASC_NODE":260.1325,"ARG_OF_PERICENTER":19.0228,"MEAN_ANOMALY":341.1113,"EPHEMERIS_TYPE":0,"CLASSIFICATION_TYPE":"U","NORAD_CAT_ID":45453,"ELEMENT_SET_NO":999,"REV_AT_EPOCH":31099,"BSTAR":0.00040711,"MEAN_MOTION_DOT":3.888e-5,"MEAN_MOTION_DDOT":0}]
